{
  "type": "FeatureCollection",
  "features": [
    {
      "type": "Feature",
      "properties": {
        "norad_id": 66466,
        "name": "STARLINK-35388",
        "group": "last-30-days",
        "lat": 42.42365761317993,
        "lon": -138.3909129108118,
        "alt_km": 394.0269253504621,
        "timestamp": "2025-12-04T07:39:34.998957+00:00",
        "meta_object_name": "STARLINK-35388",
        "meta_object_id": "2025-262L",
        "meta_epoch": "2025-12-03T22:00:03.000096",
        "meta_mean_motion": 15.57782343,
        "meta_eccentricity": 0.00018176,
        "meta_inclination": 42.9994,
        "meta_ra_of_asc_node": 122.724,
        "meta_arg_of_pericenter": 279.8699,
        "meta_mean_anomaly": 80.0675,
        "meta_ephemeris_type": 0,
        "meta_classification_type": "U",
        "meta_norad_cat_id": 66466,
        "meta_element_set_no": 999,
        "meta_rev_at_epoch": 422,
        "meta_bstar": -0.031044957,
        "meta_mean_motion_dot": -0.02109709,
        "meta_mean_motion_ddot": 0,
        "tle_line1": "1 66466U 25262L   25337.91670139 -.02109709  00000+0 -31045-1 0  9994",
        "tle_line2": "2 66466  42.9994 122.7240 0001817 279.8699  80.0675 15.57782343  4221"
      },
      "geometry": {
        "type": "Point",
        "coordinates": [
          -138.3909129108118,
          42.42365761317993
        ]
      }
    },
    {
      "type": "Feature",
      "properties": {
        "norad_id": 66467,
        "name": "STARLINK-35682",
        "group": "last-30-days",
        "lat": 42.81824809655583,
        "lon": -143.57064120748055,
        "alt_km": 393.9629525281889,
        "timestamp": "2025-12-04T07:39:34.998966+00:00",
        "meta_object_name": "STARLINK-35682",
        "meta_object_id": "2025-262M",
        "meta_epoch": "2025-12-03T22:00:03.000096",
        "meta_mean_motion": 15.57785073,
        "meta_eccentricity": 0.00017989,
        "meta_inclination": 42.9995,
        "meta_ra_of_asc_node": 122.7347,
        "meta_arg_of_pericenter": 274.2818,
        "meta_mean_anomaly": 81.8219,
        "meta_ephemeris_type": 0,
        "meta_classification_type": "U",
        "meta_norad_cat_id": 66467,
        "meta_element_set_no": 999,
        "meta_rev_at_epoch": 422,
        "meta_bstar": -0.03111066,
        "meta_mean_motion_dot": -0.02113863,
        "meta_mean_motion_ddot": 0,
        "tle_line1": "1 66467U 25262M   25337.91670139 -.02113863  00000+0 -31111-1 0  9995",
        "tle_line2": "2 66467  42.9995 122.7347 0001798 274.2818  81.8219 15.57785073  4227"
      },
      "geometry": {
        "type": "Point",
        "coordinates": [
          -143.57064120748055,
          42.81824809655583
        ]
      }
    },
    {
      "type": "Feature",
      "properties": {
        "norad_id": 66468,
        "name": "STARLINK-35331",
        "group": "last-30-days",
        "lat": 42.13951461694361,
        "lon": -135.8297468481216,
        "alt_km": 393.9589993940135,
        "timestamp": "2025-12-04T07:39:34.998975+00:00",
        "meta_object_name": "STARLINK-35331",
        "meta_object_id": "2025-262N",
        "meta_epoch": "2025-12-03T22:00:03.000096",
        "meta_mean_motion": 15.57794861,
        "meta_eccentricity": 0.00016651,
        "meta_inclination": 42.9994,
        "meta_ra_of_asc_node": 122.7201,
        "meta_arg_of_pericenter": 281.3643,
        "meta_mean_anomaly": 80.4789,
        "meta_ephemeris_type": 0,
        "meta_classification_type": "U",
        "meta_norad_cat_id": 66468,
        "meta_element_set_no": 999,
        "meta_rev_at_epoch": 422,
        "meta_bstar": -0.031209238,
        "meta_mean_motion_dot": -0.02120425,
        "meta_mean_motion_ddot": 0,
        "tle_line1": "1 66468U 25262N   25337.91670139 -.02120425  00000+0 -31209-1 0  9996",
        "tle_line2": "2 66468  42.9994 122.7201 0001665 281.3643  80.4789 15.57794861  4226"
      },
      "geometry": {
        "type": "Point",
        "coordinates": [
          -135.8297468481216,
          42.13951461694361
        ]
      }
    },
    {
      "type": "Feature",
      "properties": {
        "norad_id": 66469,
        "name": "STARLINK-35451",
        "group": "last-30-days",
        "lat": 40.95269091357451,
        "lon": -128.31572872926674,
        "alt_km": 394.1356476794781,
        "timestamp": "2025-12-04T07:39:34.998984+00:00",
        "meta_object_name": "STARLINK-35451",
        "meta_object_id": "2025-262P",
        "meta_epoch": "2025-12-03T22:00:03.000096",
        "meta_mean_motion": 15.57792637,
        "meta_eccentricity": 0.00016432,
        "meta_inclination": 42.9994,
        "meta_ra_of_asc_node": 122.7044,
        "meta_arg_of_pericenter": 280.3992,
        "meta_mean_anomaly": 87.198,
        "meta_ephemeris_type": 0,
        "meta_classification_type": "U",
        "meta_norad_cat_id": 66469,
        "meta_element_set_no": 999,
        "meta_rev_at_epoch": 422,
        "meta_bstar": -0.031185287,
        "meta_mean_motion_dot": -0.02118803,
        "meta_mean_motion_ddot": 0,
        "tle_line1": "1 66469U 25262P   25337.91670139 -.02118803  00000+0 -31185-1 0  9997",
        "tle_line2": "2 66469  42.9994 122.7044 0001643 280.3992  87.1980 15.57792637  4220"
      },
      "geometry": {
        "type": "Point",
        "coordinates": [
          -128.31572872926674,
          40.95269091357451
        ]
      }
    },
    {
      "type": "Feature",
      "properties": {
        "norad_id": 66470,
        "name": "STARLINK-35655",
        "group": "last-30-days",
        "lat": 41.798427357505865,
        "lon": -133.29275269467007,
        "alt_km": 394.11443074982617,
        "timestamp": "2025-12-04T07:39:34.998993+00:00",
        "meta_object_name": "STARLINK-35655",
        "meta_object_id": "2025-262Q",
        "meta_epoch": "2025-12-03T22:00:03.000096",
        "meta_mean_motion": 15.57781908,
        "meta_eccentricity": 0.00018118,
        "meta_inclination": 42.9993,
        "meta_ra_of_asc_node": 122.7154,
        "meta_arg_of_pericenter": 284.54,
        "meta_mean_anomaly": 79.231,
        "meta_ephemeris_type": 0,
        "meta_classification_type": "U",
        "meta_norad_cat_id": 66470,
        "meta_element_set_no": 999,
        "meta_rev_at_epoch": 422,
        "meta_bstar": -0.031041441,
        "meta_mean_motion_dot": -0.02109461,
        "meta_mean_motion_ddot": 0,
        "tle_line1": "1 66470U 25262Q   25337.91670139 -.02109461  00000+0 -31041-1 0  9990",
        "tle_line2": "2 66470  42.9993 122.7154 0001811 284.5400  79.2310 15.57781908  4228"
      },
      "geometry": {
        "type": "Point",
        "coordinates": [
          -133.29275269467007,
          41.798427357505865
        ]
      }
    },
    {
      "type": "Feature",
      "properties": {
        "norad_id": 66471,
        "name": "STARLINK-35569",
        "group": "last-30-days",
        "lat": 41.40245839200176,
        "lon": -130.78701452340684,
        "alt_km": 394.1198296524017,
        "timestamp": "2025-12-04T07:39:34.999004+00:00",
        "meta_object_name": "STARLINK-35569",
        "meta_object_id": "2025-262R",
        "meta_epoch": "2025-12-03T22:00:03.000096",
        "meta_mean_motion": 15.57786414,
        "meta_eccentricity": 0.00017039,
        "meta_inclination": 42.9994,
        "meta_ra_of_asc_node": 122.7104,
        "meta_arg_of_pericenter": 280.6961,
        "meta_mean_anomaly": 84.9923,
        "meta_ephemeris_type": 0,
        "meta_classification_type": "U",
        "meta_norad_cat_id": 66471,
        "meta_element_set_no": 999,
        "meta_rev_at_epoch": 422,
        "meta_bstar": -0.031156292,
        "meta_mean_motion_dot": -0.02116649,
        "meta_mean_motion_ddot": 0,
        "tle_line1": "1 66471U 25262R   25337.91670139 -.02116649  00000+0 -31156-1 0  9994",
        "tle_line2": "2 66471  42.9994 122.7104 0001703 280.6961  84.9923 15.57786414  4224"
      },
      "geometry": {
        "type": "Point",
        "coordinates": [
          -130.78701452340684,
          41.40245839200176
        ]
      }
    },
    {
      "type": "Feature",
      "properties": {
        "norad_id": 66472,
        "name": "STARLINK-35567",
        "group": "last-30-days",
        "lat": 40.44996654395548,
        "lon": -125.87528439846723,
        "alt_km": 394.2971498698389,
        "timestamp": "2025-12-04T07:39:34.999012+00:00",
        "meta_object_name": "STARLINK-35567",
        "meta_object_id": "2025-262S",
        "meta_epoch": "2025-12-03T22:00:03.000096",
        "meta_mean_motion": 15.57783535,
        "meta_eccentricity": 0.00017518,
        "meta_inclination": 42.9993,
        "meta_ra_of_asc_node": 122.7003,
        "meta_arg_of_pericenter": 282.5703,
        "meta_mean_anomaly": 86.953,
        "meta_ephemeris_type": 0,
        "meta_classification_type": "U",
        "meta_norad_cat_id": 66472,
        "meta_element_set_no": 999,
        "meta_rev_at_epoch": 422,
        "meta_bstar": -0.031088697,
        "meta_mean_motion_dot": -0.02112391,
        "meta_mean_motion_ddot": 0,
        "tle_line1": "1 66472U 25262S   25337.91670139 -.02112391  00000+0 -31089-1 0  9990",
        "tle_line2": "2 66472  42.9993 122.7003 0001751 282.5703  86.9530 15.57783535  4227"
      },
      "geometry": {
        "type": "Point",
        "coordinates": [
          -125.87528439846723,
          40.44996654395548
        ]
      }
    }
  ]
}